<?xml version="1.0" encoding="UTF-8"?>
<ndm xmlns:xsi="http://www.w3.org/2001/XMLSchema-instance" xsi:noNamespaceSchemaLocation="https://sanaregistry.org/r/ndmxml_unqualified/ndmxml-2.0.0-master-2.0.xsd">
<omm id="CCSDS_OMM_VERS" version="2.0">
<header><CREATION_DATE/><ORIGINATOR/></header><body><segment><metadata><OBJECT_NAME>KUIPER-00016</OBJECT_NAME><OBJECT_ID>2025-088J</OBJECT_ID><CENTER_NAME>EARTH</CENTER_NAME><REF_FRAME>TEME</REF_FRAME><TIME_SYSTEM>UTC</TIME_SYSTEM><MEAN_ELEMENT_THEORY>SGP4</MEAN_ELEMENT_THEORY></metadata><data><meanElements><EPOCH>2025-07-26T18:46:42.032352</EPOCH><MEAN_MOTION>15.12793737</MEAN_MOTION><ECCENTRICITY>.0010136</ECCENTRICITY><INCLINATION>51.8830</INCLINATION><RA_OF_ASC_NODE>33.7049</RA_OF_ASC_NODE><ARG_OF_PERICENTER>54.8251</ARG_OF_PERICENTER><MEAN_ANOMALY>305.3673</MEAN_ANOMALY></meanElements><tleParameters><EPHEMERIS_TYPE>0</EPHEMERIS_TYPE><CLASSIFICATION_TYPE>U</CLASSIFICATION_TYPE><NORAD_CAT_ID>63732</NORAD_CAT_ID><ELEMENT_SET_NO>999</ELEMENT_SET_NO><REV_AT_EPOCH>1383</REV_AT_EPOCH><BSTAR>.69543E-3</BSTAR><MEAN_MOTION_DOT>.12088E-3</MEAN_MOTION_DOT><MEAN_MOTION_DDOT>0</MEAN_MOTION_DDOT></tleParameters></data></segment></body></omm>
<omm id="CCSDS_OMM_VERS" version="2.0">
<header><CREATION_DATE/><ORIGINATOR/></header><body><segment><metadata><OBJECT_NAME>KUIPER-00018</OBJECT_NAME><OBJECT_ID>2025-088K</OBJECT_ID><CENTER_NAME>EARTH</CENTER_NAME><REF_FRAME>TEME</REF_FRAME><TIME_SYSTEM>UTC</TIME_SYSTEM><MEAN_ELEMENT_THEORY>SGP4</MEAN_ELEMENT_THEORY></metadata><data><meanElements><EPOCH>2025-07-27T14:00:01.999872</EPOCH><MEAN_MOTION>15.30030287</MEAN_MOTION><ECCENTRICITY>.0006624</ECCENTRICITY><INCLINATION>51.8735</INCLINATION><RA_OF_ASC_NODE>25.4484</RA_OF_ASC_NODE><ARG_OF_PERICENTER>66.5004</ARG_OF_PERICENTER><MEAN_ANOMALY>99.2294</MEAN_ANOMALY></meanElements><tleParameters><EPHEMERIS_TYPE>0</EPHEMERIS_TYPE><CLASSIFICATION_TYPE>U</CLASSIFICATION_TYPE><NORAD_CAT_ID>63733</NORAD_CAT_ID><ELEMENT_SET_NO>999</ELEMENT_SET_NO><REV_AT_EPOCH>1401</REV_AT_EPOCH><BSTAR>-.46895E-1</BSTAR><MEAN_MOTION_DOT>-.1268813E-1</MEAN_MOTION_DOT><MEAN_MOTION_DDOT>0</MEAN_MOTION_DDOT></tleParameters></data></segment></body></omm>
<omm id="CCSDS_OMM_VERS" version="2.0">
<header><CREATION_DATE/><ORIGINATOR/></header><body><segment><metadata><OBJECT_NAME>KUIPER-00019</OBJECT_NAME><OBJECT_ID>2025-088L</OBJECT_ID><CENTER_NAME>EARTH</CENTER_NAME><REF_FRAME>TEME</REF_FRAME><TIME_SYSTEM>UTC</TIME_SYSTEM><MEAN_ELEMENT_THEORY>SGP4</MEAN_ELEMENT_THEORY></metadata><data><meanElements><EPOCH>2025-07-27T04:51:08.723520</EPOCH><MEAN_MOTION>15.36655712</MEAN_MOTION><ECCENTRICITY>.000406</ECCENTRICITY><INCLINATION>51.8693</INCLINATION><RA_OF_ASC_NODE>26.9695</RA_OF_ASC_NODE><ARG_OF_PERICENTER>81.4141</ARG_OF_PERICENTER><MEAN_ANOMALY>278.7305</MEAN_ANOMALY></meanElements><tleParameters><EPHEMERIS_TYPE>0</EPHEMERIS_TYPE><CLASSIFICATION_TYPE>U</CLASSIFICATION_TYPE><NORAD_CAT_ID>63734</NORAD_CAT_ID><ELEMENT_SET_NO>999</ELEMENT_SET_NO><REV_AT_EPOCH>1396</REV_AT_EPOCH><BSTAR>-.33802E-2</BSTAR><MEAN_MOTION_DOT>-.121362E-2</MEAN_MOTION_DOT><MEAN_MOTION_DDOT>0</MEAN_MOTION_DDOT></tleParameters></data></segment></body></omm>
<omm id="CCSDS_OMM_VERS" version="2.0">
<header><CREATION_DATE/><ORIGINATOR/></header><body><segment><metadata><OBJECT_NAME>KUIPER-00020</OBJECT_NAME><OBJECT_ID>2025-088M</OBJECT_ID><CENTER_NAME>EARTH</CENTER_NAME><REF_FRAME>TEME</REF_FRAME><TIME_SYSTEM>UTC</TIME_SYSTEM><MEAN_ELEMENT_THEORY>SGP4</MEAN_ELEMENT_THEORY></metadata><data><meanElements><EPOCH>2025-07-27T14:00:01.999872</EPOCH><MEAN_MOTION>15.24831946</MEAN_MOTION><ECCENTRICITY>.0008004</ECCENTRICITY><INCLINATION>51.8779</INCLINATION><RA_OF_ASC_NODE>26.1534</RA_OF_ASC_NODE><ARG_OF_PERICENTER>61.8922</ARG_OF_PERICENTER><MEAN_ANOMALY>93.7642</MEAN_ANOMALY></meanElements><tleParameters><EPHEMERIS_TYPE>0</EPHEMERIS_TYPE><CLASSIFICATION_TYPE>U</CLASSIFICATION_TYPE><NORAD_CAT_ID>63735</NORAD_CAT_ID><ELEMENT_SET_NO>999</ELEMENT_SET_NO><REV_AT_EPOCH>1421</REV_AT_EPOCH><BSTAR>-.30779E-1</BSTAR><MEAN_MOTION_DOT>-.723912E-2</MEAN_MOTION_DOT><MEAN_MOTION_DDOT>0</MEAN_MOTION_DDOT></tleParameters></data></segment></body></omm>
<omm id="CCSDS_OMM_VERS" version="2.0">
<header><CREATION_DATE/><ORIGINATOR/></header><body><segment><metadata><OBJECT_NAME>KUIPER-00021</OBJECT_NAME><OBJECT_ID>2025-088N</OBJECT_ID><CENTER_NAME>EARTH</CENTER_NAME><REF_FRAME>TEME</REF_FRAME><TIME_SYSTEM>UTC</TIME_SYSTEM><MEAN_ELEMENT_THEORY>SGP4</MEAN_ELEMENT_THEORY></metadata><data><meanElements><EPOCH>2025-07-27T14:00:01.999872</EPOCH><MEAN_MOTION>15.22401480</MEAN_MOTION><ECCENTRICITY>.000523</ECCENTRICITY><INCLINATION>51.8720</INCLINATION><RA_OF_ASC_NODE>26.6215</RA_OF_ASC_NODE><ARG_OF_PERICENTER>76.5219</ARG_OF_PERICENTER><MEAN_ANOMALY>235.1053</MEAN_ANOMALY></meanElements><tleParameters><EPHEMERIS_TYPE>0</EPHEMERIS_TYPE><CLASSIFICATION_TYPE>U</CLASSIFICATION_TYPE><NORAD_CAT_ID>63736</NORAD_CAT_ID><ELEMENT_SET_NO>999</ELEMENT_SET_NO><REV_AT_EPOCH>1403</REV_AT_EPOCH><BSTAR>-.2653E-1</BSTAR><MEAN_MOTION_DOT>-.581946E-2</MEAN_MOTION_DOT><MEAN_MOTION_DDOT>0</MEAN_MOTION_DDOT></tleParameters></data></segment></body></omm>
<omm id="CCSDS_OMM_VERS" version="2.0">
<header><CREATION_DATE/><ORIGINATOR/></header><body><segment><metadata><OBJECT_NAME>KUIPER-00023</OBJECT_NAME><OBJECT_ID>2025-088P</OBJECT_ID><CENTER_NAME>EARTH</CENTER_NAME><REF_FRAME>TEME</REF_FRAME><TIME_SYSTEM>UTC</TIME_SYSTEM><MEAN_ELEMENT_THEORY>SGP4</MEAN_ELEMENT_THEORY></metadata><data><meanElements><EPOCH>2025-07-27T14:00:01.999872</EPOCH><MEAN_MOTION>15.19973822</MEAN_MOTION><ECCENTRICITY>.0009352</ECCENTRICITY><INCLINATION>51.8777</INCLINATION><RA_OF_ASC_NODE>27.2549</RA_OF_ASC_NODE><ARG_OF_PERICENTER>73.3293</ARG_OF_PERICENTER><MEAN_ANOMALY>297.1922</MEAN_ANOMALY></meanElements><tleParameters><EPHEMERIS_TYPE>0</EPHEMERIS_TYPE><CLASSIFICATION_TYPE>U</CLASSIFICATION_TYPE><NORAD_CAT_ID>63737</NORAD_CAT_ID><ELEMENT_SET_NO>999</ELEMENT_SET_NO><REV_AT_EPOCH>1433</REV_AT_EPOCH><BSTAR>-.30824E-1</BSTAR><MEAN_MOTION_DOT>-.626987E-2</MEAN_MOTION_DOT><MEAN_MOTION_DDOT>0</MEAN_MOTION_DDOT></tleParameters></data></segment></body></omm>
<omm id="CCSDS_OMM_VERS" version="2.0">
<header><CREATION_DATE/><ORIGINATOR/></header><body><segment><metadata><OBJECT_NAME>KUIPER-00024</OBJECT_NAME><OBJECT_ID>2025-088Q</OBJECT_ID><CENTER_NAME>EARTH</CENTER_NAME><REF_FRAME>TEME</REF_FRAME><TIME_SYSTEM>UTC</TIME_SYSTEM><MEAN_ELEMENT_THEORY>SGP4</MEAN_ELEMENT_THEORY></metadata><data><meanElements><EPOCH>2025-07-26T20:59:50.133120</EPOCH><MEAN_MOTION>15.38426918</MEAN_MOTION><ECCENTRICITY>.0001483</ECCENTRICITY><INCLINATION>51.8725</INCLINATION><RA_OF_ASC_NODE>27.8133</RA_OF_ASC_NODE><ARG_OF_PERICENTER>105.8189</ARG_OF_PERICENTER><MEAN_ANOMALY>254.2961</MEAN_ANOMALY></meanElements><tleParameters><EPHEMERIS_TYPE>0</EPHEMERIS_TYPE><CLASSIFICATION_TYPE>U</CLASSIFICATION_TYPE><NORAD_CAT_ID>63738</NORAD_CAT_ID><ELEMENT_SET_NO>999</ELEMENT_SET_NO><REV_AT_EPOCH>1439</REV_AT_EPOCH><BSTAR>.46535E-3</BSTAR><MEAN_MOTION_DOT>.17564E-3</MEAN_MOTION_DOT><MEAN_MOTION_DDOT>0</MEAN_MOTION_DDOT></tleParameters></data></segment></body></omm>
<omm id="CCSDS_OMM_VERS" version="2.0">
<header><CREATION_DATE/><ORIGINATOR/></header><body><segment><metadata><OBJECT_NAME>KUIPER-00025</OBJECT_NAME><OBJECT_ID>2025-088R</OBJECT_ID><CENTER_NAME>EARTH</CENTER_NAME><REF_FRAME>TEME</REF_FRAME><TIME_SYSTEM>UTC</TIME_SYSTEM><MEAN_ELEMENT_THEORY>SGP4</MEAN_ELEMENT_THEORY></metadata><data><meanElements><EPOCH>2025-07-27T14:00:01.999872</EPOCH><MEAN_MOTION>15.29737082</MEAN_MOTION><ECCENTRICITY>.0006986</ECCENTRICITY><INCLINATION>51.8717</INCLINATION><RA_OF_ASC_NODE>25.5296</RA_OF_ASC_NODE><ARG_OF_PERICENTER>61.8823</ARG_OF_PERICENTER><MEAN_ANOMALY>35.6217</MEAN_ANOMALY></meanElements><tleParameters><EPHEMERIS_TYPE>0</EPHEMERIS_TYPE><CLASSIFICATION_TYPE>U</CLASSIFICATION_TYPE><NORAD_CAT_ID>63739</NORAD_CAT_ID><ELEMENT_SET_NO>999</ELEMENT_SET_NO><REV_AT_EPOCH>1434</REV_AT_EPOCH><BSTAR>-.42665E-1</BSTAR><MEAN_MOTION_DOT>-.1138389E-1</MEAN_MOTION_DOT><MEAN_MOTION_DDOT>0</MEAN_MOTION_DDOT></tleParameters></data></segment></body></omm>

</ndm>
