KUIPER-00016            
1 63732U 25088J   25207.78243093  .00012088  00000+0  69543-3 0  9994
2 63732  51.8830  33.7049 0010136  54.8251 305.3673 15.12793737 13837
KUIPER-00018            
1 63733U 25088K   25208.58335648 -.01268813  00000+0 -46895-1 0  9997
2 63733  51.8735  25.4484 0006624  66.5004  99.2294 15.30030287 14019
KUIPER-00019            
1 63734U 25088L   25208.20218430 -.00121362  00000+0 -33802-2 0  9997
2 63734  51.8693  26.9695 0004060  81.4141 278.7305 15.36655712 13965
KUIPER-00020            
1 63735U 25088M   25208.58335648 -.00723912  00000+0 -30779-1 0  9998
2 63735  51.8779  26.1534 0008004  61.8922  93.7642 15.24831946 14216
KUIPER-00021            
1 63736U 25088N   25208.58335648 -.00581946  00000+0 -26530-1 0  9998
2 63736  51.8720  26.6215 0005230  76.5219 235.1053 15.22401480 14036
KUIPER-00023            
1 63737U 25088P   25208.58335648 -.00626987  00000+0 -30824-1 0  9995
2 63737  51.8777  27.2549 0009352  73.3293 297.1922 15.19973822 14338
KUIPER-00024            
1 63738U 25088Q   25207.87488580  .00017564  00000+0  46535-3 0  9992
2 63738  51.8725  27.8133 0001483 105.8189 254.2961 15.38426918 14392
KUIPER-00025            
1 63739U 25088R   25208.58335648 -.01138389  00000+0 -42665-1 0  9998
2 63739  51.8717  25.5296 0006986  61.8823  35.6217 15.29737082 14345
